{
"type": "FeatureCollection",
"name": "centros_saude",
"crs": { "type": "name", "properties": { "name": "urn:ogc:def:crs:OGC:1.3:CRS84" } },
"features": [
{ "type": "Feature", "properties": { "id": 175, "nome": "CENTRO DE SAUDE DOM CABRAL", "sigla": "CS" }, "geometry": { "type": "Point", "coordinates": [ -43.998641231140574, -19.923037887930874 ] } },
{ "type": "Feature", "properties": { "id": 268, "nome": "CENTRO DE SAUDE BETANIA", "sigla": "CS" }, "geometry": { "type": "Point", "coordinates": [ -43.988645522479402, -19.962047878378296 ] } },
{ "type": "Feature", "properties": { "id": 428, "nome": "CENTRO DE SAUDE PALMEIRAS", "sigla": "CS" }, "geometry": { "type": "Point", "coordinates": [ -43.978160817478674, -19.972151802047659 ] } },
{ "type": "Feature", "properties": { "id": 280, "nome": "CENTRO DE SAUDE BOA VISTA", "sigla": "CSPPP" }, "geometry": { "type": "Point", "coordinates": [ -43.897145532838749, -19.892349834443067 ] } },
{ "type": "Feature", "properties": { "id": 228, "nome": "CENTRO DE SAUDE CAFEZAL", "sigla": "CS" }, "geometry": { "type": "Point", "coordinates": [ -43.911201332036249, -19.936169613142681 ] } },
{ "type": "Feature", "properties": { "id": 364, "nome": "CENTRO DE SAUDE ZILAH SPOSITO", "sigla": "CSPPP" }, "geometry": { "type": "Point", "coordinates": [ -43.928198698188226, -19.804786883025315 ] } },
{ "type": "Feature", "properties": { "id": 260, "nome": "CENTRO DE SAUDE PRIMEIRO DE MAIO", "sigla": "CSPPP" }, "geometry": { "type": "Point", "coordinates": [ -43.927630860350156, -19.861425769044491 ] } },
{ "type": "Feature", "properties": { "id": 350, "nome": "CENTRO DE SAUDE NOVA YORK", "sigla": "CS" }, "geometry": { "type": "Point", "coordinates": [ -43.968064214049804, -19.794222163275961 ] } },
{ "type": "Feature", "properties": { "id": 464, "nome": "CENTRO DE SAUDE JAQUELINE II", "sigla": "CS" }, "geometry": { "type": "Point", "coordinates": [ -43.944131554068264, -19.805151386330024 ] } },
{ "type": "Feature", "properties": { "id": 533, "nome": "CENTRO DE SAUDE CAMARGOS", "sigla": "CS" }, "geometry": { "type": "Point", "coordinates": [ -44.018158832077397, -19.939973189609308 ] } },
{ "type": "Feature", "properties": { "id": 191, "nome": "CENTRO DE SAUDE MARIA GORETTI", "sigla": "CSPPP" }, "geometry": { "type": "Point", "coordinates": [ -43.90475788679823, -19.867491747984367 ] } },
{ "type": "Feature", "properties": { "id": 211, "nome": "CENTRO DE SAUDE MILIONARIOS", "sigla": "CS" }, "geometry": { "type": "Point", "coordinates": [ -43.999294625279703, -19.981113745170624 ] } },
{ "type": "Feature", "properties": { "id": 359, "nome": "CENTRO DE SAUDE DOM ORIONE", "sigla": "CSPPP" }, "geometry": { "type": "Point", "coordinates": [ -43.982862045593947, -19.865074048590628 ] } },
{ "type": "Feature", "properties": { "id": 393, "nome": "CENTRO DE SAUDE PARAISO", "sigla": "CS" }, "geometry": { "type": "Point", "coordinates": [ -43.908281726900697, -19.924390468637064 ] } },
{ "type": "Feature", "properties": { "id": 321, "nome": "CENTRO DE SAUDE SANTOS ANJOS", "sigla": "CS" }, "geometry": { "type": "Point", "coordinates": [ -43.956505627638606, -19.904986255559518 ] } },
{ "type": "Feature", "properties": { "id": 440, "nome": "CENTRO DE SAUDE SAO JORGE", "sigla": "CSPPP" }, "geometry": { "type": "Point", "coordinates": [ -43.964905717807, -19.944928787217137 ] } },
{ "type": "Feature", "properties": { "id": 340, "nome": "CENTRO DE SAUDE ERMELINDA", "sigla": "CS" }, "geometry": { "type": "Point", "coordinates": [ -43.958323738371824, -19.890367491170004 ] } },
{ "type": "Feature", "properties": { "id": 368, "nome": "CENTRO DE SAUDE SAO MARCOS", "sigla": "CS" }, "geometry": { "type": "Point", "coordinates": [ -43.914719115857785, -19.871039434637748 ] } },
{ "type": "Feature", "properties": { "id": 192, "nome": "CENTRO DE SAUDE SAO PAULO", "sigla": "CSPPP" }, "geometry": { "type": "Point", "coordinates": [ -43.924293056401517, -19.866642774657038 ] } },
{ "type": "Feature", "properties": { "id": 289, "nome": "CENTRO DE SAUDE BOM JESUS", "sigla": "CS" }, "geometry": { "type": "Point", "coordinates": [ -43.955643696951682, -19.894775364391045 ] } },
{ "type": "Feature", "properties": { "id": 524, "nome": "CENTRO DE SAUDE MANTIQUEIRA", "sigla": "CSPPP" }, "geometry": { "type": "Point", "coordinates": [ -43.98057281083377, -19.799560543879348 ] } },
{ "type": "Feature", "properties": { "id": 262, "nome": "CENTRO DE SAUDE SANTA CRUZ - PADRE FERNANDO DE MELLO", "sigla": "CS" }, "geometry": { "type": "Point", "coordinates": [ -43.938431673695952, -19.872146049320992 ] } },
{ "type": "Feature", "properties": { "id": 310, "nome": "CENTRO DE SAUDE CARLOS PRATES", "sigla": "CSPPP" }, "geometry": { "type": "Point", "coordinates": [ -43.963395171348999, -19.914612259364976 ] } },
{ "type": "Feature", "properties": { "id": 1001, "nome": "CENTRO DE SAUDE VILA MARIA", "sigla": "CS" }, "geometry": { "type": "Point", "coordinates": [ -43.885625577422701, -19.852707585473723 ] } },
{ "type": "Feature", "properties": { "id": 226, "nome": "CENTRO DE SAUDE ETELVINA CARNEIRO", "sigla": "CSPPP" }, "geometry": { "type": "Point", "coordinates": [ -43.931800974041494, -19.812022352493042 ] } },
{ "type": "Feature", "properties": { "id": 433, "nome": "CENTRO DE SAUDE SAO CRISTOVAO", "sigla": "CS" }, "geometry": { "type": "Point", "coordinates": [ -43.944429070814003, -19.908531055619797 ] } },
{ "type": "Feature", "properties": { "id": 217, "nome": "CENTRO DE SAUDE VILA LEONINA", "sigla": "CS" }, "geometry": { "type": "Point", "coordinates": [ -43.965148463825308, -19.955931858500119 ] } },
{ "type": "Feature", "properties": { "id": 302, "nome": "CENTRO DE SAUDE ITAIPU - JATOBA", "sigla": "CSPPP" }, "geometry": { "type": "Point", "coordinates": [ -44.048453565295056, -19.996246674477028 ] } },
{ "type": "Feature", "properties": { "id": 343, "nome": "CENTRO DE SAUDE SANTA MONICA", "sigla": "CSPPP" }, "geometry": { "type": "Point", "coordinates": [ -43.976858042947669, -19.829548605589189 ] } },
{ "type": "Feature", "properties": { "id": 405, "nome": "CENTRO DE SAUDE JOAO PINHEIRO", "sigla": "CSPPP" }, "geometry": { "type": "Point", "coordinates": [ -44.00354398585435, -19.927530432368432 ] } },
{ "type": "Feature", "properties": { "id": 561, "nome": "CENTRO DE SAUDE BARREIRO DE CIMA", "sigla": "CS" }, "geometry": { "type": "Point", "coordinates": [ -44.005242265484554, -19.995817578027857 ] } },
{ "type": "Feature", "properties": { "id": 968, "nome": "CENTRO DE SAUDE CIDADE OZANAN", "sigla": "CS" }, "geometry": { "type": "Point", "coordinates": [ -43.932259668744408, -19.88443633883438 ] } },
{ "type": "Feature", "properties": { "id": 246, "nome": "CENTRO DE SAUDE CIDADE OZANAN", "sigla": "CS" }, "geometry": { "type": "Point", "coordinates": [ -43.932259668744408, -19.88443633883438 ] } },
{ "type": "Feature", "properties": { "id": 188, "nome": "CENTRO DE SAUDE BARREIRO - CARLOS RENATO DIAS", "sigla": "CSPPP" }, "geometry": { "type": "Point", "coordinates": [ -44.022657302692913, -19.975656094135058 ] } },
{ "type": "Feature", "properties": { "id": 219, "nome": "CENTRO DE SAUDE BAIRRO DAS INDUSTRIAS - CENTRO DE SAUDE DR. JOSE DOMINGOS", "sigla": "CS" }, "geometry": { "type": "Point", "coordinates": [ -44.000881784763585, -19.963647916201637 ] } },
{ "type": "Feature", "properties": { "id": 413, "nome": "CENTRO DE SAUDE REGINA", "sigla": "CS" }, "geometry": { "type": "Point", "coordinates": [ -44.054750489163084, -19.982555156342475 ] } },
{ "type": "Feature", "properties": { "id": 358, "nome": "CENTRO DE SAUDE CEU AZUL", "sigla": "CSPPP" }, "geometry": { "type": "Point", "coordinates": [ -44.002338268299901, -19.826850834355508 ] } },
{ "type": "Feature", "properties": { "id": 221, "nome": "CENTRO DE SAUDE PROVIDENCIA", "sigla": "CS" }, "geometry": { "type": "Point", "coordinates": [ -43.929183660371109, -19.853264563747221 ] } },
{ "type": "Feature", "properties": { "id": 164, "nome": "CENTRO DE SAUDE NOSSA SENHORA APARECIDA", "sigla": "CS" }, "geometry": { "type": "Point", "coordinates": [ -43.917374459046371, -19.930474486415285 ] } },
{ "type": "Feature", "properties": { "id": 303, "nome": "CENTRO DE SAUDE JAQUELINE", "sigla": "CS" }, "geometry": { "type": "Point", "coordinates": [ -43.936593794900546, -19.801845880138831 ] } },
{ "type": "Feature", "properties": { "id": 190, "nome": "CENTRO DE SAUDE SAO BERNARDO - AMELIA ROCHA DE MELO", "sigla": "CSPPP" }, "geometry": { "type": "Point", "coordinates": [ -43.938432636708882, -19.848102877831675 ] } },
{ "type": "Feature", "properties": { "id": 278, "nome": "CENTRO DE SAUDE HELIOPOLIS", "sigla": "CSPPP" }, "geometry": { "type": "Point", "coordinates": [ -43.941354636422076, -19.843163833028008 ] } },
{ "type": "Feature", "properties": { "id": 416, "nome": "CENTRO DE SAUDE LAGOA", "sigla": "CS" }, "geometry": { "type": "Point", "coordinates": [ -44.001092216388976, -19.809197473712725 ] } },
{ "type": "Feature", "properties": { "id": 503, "nome": "CENTRO DE SAUDE OSWALDO CRUZ", "sigla": "CS" }, "geometry": { "type": "Point", "coordinates": [ -43.955751294479143, -19.920537095179661 ] } },
{ "type": "Feature", "properties": { "id": 414, "nome": "CENTRO DE SAUDE TIROL - FRANCISCO GOMES BARBOSA", "sigla": "CS" }, "geometry": { "type": "Point", "coordinates": [ -44.035466693310099, -19.985168627789385 ] } },
{ "type": "Feature", "properties": { "id": 202, "nome": "CENTRO DE SAUDE TIA AMANCIA", "sigla": "CS" }, "geometry": { "type": "Point", "coordinates": [ -43.949985404923837, -19.947825472268974 ] } },
{ "type": "Feature", "properties": { "id": 145, "nome": "CENTRO DE SAUDE CARLOS CHAGAS", "sigla": "CS" }, "geometry": { "type": "Point", "coordinates": [ -43.923542786023553, -19.928808941105288 ] } },
{ "type": "Feature", "properties": { "id": 318, "nome": "CENTRO DE SAUDE SANTA AMELIA", "sigla": "CSPPP" }, "geometry": { "type": "Point", "coordinates": [ -43.967201119718936, -19.837782259914022 ] } },
{ "type": "Feature", "properties": { "id": 165, "nome": "CENTRO DE SAUDE NOVO HORIZONTE", "sigla": "CS" }, "geometry": { "type": "Point", "coordinates": [ -43.877233046539097, -19.919318386745491 ] } },
{ "type": "Feature", "properties": { "id": 333, "nome": "CENTRO DE SAUDE CALIFORNIA", "sigla": "CS" }, "geometry": { "type": "Point", "coordinates": [ -44.009899107737041, -19.922989445507806 ] } },
{ "type": "Feature", "properties": { "id": 398, "nome": "CENTRO DE SAUDE LAJEDO", "sigla": "CSPPP" }, "geometry": { "type": "Point", "coordinates": [ -43.913570588335936, -19.834191664859482 ] } },
{ "type": "Feature", "properties": { "id": 355, "nome": "CENTRO DE SAUDE RIO BRANCO", "sigla": "CSPPP" }, "geometry": { "type": "Point", "coordinates": [ -43.980254278551172, -19.814790330607174 ] } },
{ "type": "Feature", "properties": { "id": 168, "nome": "CENTRO DE SAUDE CABANA", "sigla": "CSPPP" }, "geometry": { "type": "Point", "coordinates": [ -43.996679502021315, -19.943333446196952 ] } },
{ "type": "Feature", "properties": { "id": 284, "nome": "CENTRO DE SAUDE PADRE EUSTAQUIO", "sigla": "CSPPP" }, "geometry": { "type": "Point", "coordinates": [ -43.98946510805829, -19.915445684309795 ] } },
{ "type": "Feature", "properties": { "id": 352, "nome": "CENTRO DE SAUDE PIRATININGA", "sigla": "CSPPP" }, "geometry": { "type": "Point", "coordinates": [ -43.992859535548874, -19.816425962809703 ] } },
{ "type": "Feature", "properties": { "id": 282, "nome": "CENTRO DE SAUDE JOAO XXIII", "sigla": "CS" }, "geometry": { "type": "Point", "coordinates": [ -44.005755683270003, -19.937506581247547 ] } },
{ "type": "Feature", "properties": { "id": 453, "nome": "CENTRO DE SAUDE MARIANO DE ABREU", "sigla": "CSPPP" }, "geometry": { "type": "Point", "coordinates": [ -43.886743796595788, -19.900945311462436 ] } },
{ "type": "Feature", "properties": { "id": 424, "nome": "CENTRO DE SAUDE GRANJA DE FREITAS", "sigla": "CSPPP" }, "geometry": { "type": "Point", "coordinates": [ -43.887173215409554, -19.910899117721176 ] } },
{ "type": "Feature", "properties": { "id": 508, "nome": "CENTRO DE SAUDE CAMPO ALEGRE", "sigla": "CSPPP" }, "geometry": { "type": "Point", "coordinates": [ -43.949226020387869, -19.829955041269791 ] } },
{ "type": "Feature", "properties": { "id": 166, "nome": "CENTRO DE SAUDE VISTA ALEGRE", "sigla": "CS" }, "geometry": { "type": "Point", "coordinates": [ -43.991648191049251, -19.949446403390468 ] } },
{ "type": "Feature", "properties": { "id": 194, "nome": "CENTRO DE SAUDE JARDIM DOS COMERCIARIOS", "sigla": "CSPPP" }, "geometry": { "type": "Point", "coordinates": [ -43.975839968149884, -19.788104758080156 ] } },
{ "type": "Feature", "properties": { "id": 324, "nome": "CENTRO DE SAUDE MINAS CAIXA", "sigla": "CS" }, "geometry": { "type": "Point", "coordinates": [ -43.959141600874162, -19.805244711114085 ] } },
{ "type": "Feature", "properties": { "id": 449, "nome": "CENTRO DE SAUDE VILA IMPERIAL", "sigla": "CS" }, "geometry": { "type": "Point", "coordinates": [ -44.004733570732029, -19.94909997721529 ] } },
{ "type": "Feature", "properties": { "id": 421, "nome": "CENTRO DE SAUDE SAO GERALDO", "sigla": "CS" }, "geometry": { "type": "Point", "coordinates": [ -43.902209316583253, -19.896710413329945 ] } },
{ "type": "Feature", "properties": { "id": 366, "nome": "CENTRO DE SAUDE GENTIL GOMES", "sigla": "CS" }, "geometry": { "type": "Point", "coordinates": [ -43.945886577969397, -19.874251345141634 ] } },
{ "type": "Feature", "properties": { "id": 401, "nome": "CENTRO DE SAUDE ALCIDES LINS", "sigla": "CS" }, "geometry": { "type": "Point", "coordinates": [ -43.937616022629342, -19.895241613325865 ] } },
{ "type": "Feature", "properties": { "id": 220, "nome": "CENTRO DE SAUDE MENINO JESUS", "sigla": "CS" }, "geometry": { "type": "Point", "coordinates": [ -43.941964832741213, -19.943048929269288 ] } },
{ "type": "Feature", "properties": { "id": 339, "nome": "CENTRO DE SAUDE GUARANI", "sigla": "CS" }, "geometry": { "type": "Point", "coordinates": [ -43.924301037519143, -19.842633239092685 ] } },
{ "type": "Feature", "properties": { "id": 317, "nome": "CENTRO DE SAUDE NOSSA SENHORA DE FATIMA", "sigla": "CS" }, "geometry": { "type": "Point", "coordinates": [ -43.914381781137699, -19.942179248456256 ] } },
{ "type": "Feature", "properties": { "id": 326, "nome": "CENTRO DE SAUDE JARDIM LEBLON", "sigla": "CSPPP" }, "geometry": { "type": "Point", "coordinates": [ -43.987538811765411, -19.825751968021954 ] } },
{ "type": "Feature", "properties": { "id": 234, "nome": "CENTRO DE SAUDE SANTA TEREZINHA", "sigla": "CS" }, "geometry": { "type": "Point", "coordinates": [ -44.006469446892794, -19.874686476820433 ] } },
{ "type": "Feature", "properties": { "id": 447, "nome": "CENTRO DE SAUDE CONJUNTO BETANIA", "sigla": "CS" }, "geometry": { "type": "Point", "coordinates": [ -43.995651395739785, -19.964381724794759 ] } },
{ "type": "Feature", "properties": { "id": 534, "nome": "CENTRO DE SAUDE DOM BOSCO", "sigla": "CS" }, "geometry": { "type": "Point", "coordinates": [ -43.999589128829797, -19.912079207251864 ] } },
{ "type": "Feature", "properties": { "id": 371, "nome": "CENTRO DE SAUDE CICERO IDELFONSO", "sigla": "CSPPP" }, "geometry": { "type": "Point", "coordinates": [ -43.99787974935645, -19.954821941596443 ] } },
{ "type": "Feature", "properties": { "id": 233, "nome": "CENTRO DE SAUDE FELICIDADE II", "sigla": "CSPPP" }, "geometry": { "type": "Point", "coordinates": [ -43.930752837968193, -19.824994711019794 ] } },
{ "type": "Feature", "properties": { "id": 196, "nome": "CENTRO DE SAUDE COPACABANA", "sigla": "CSPPP" }, "geometry": { "type": "Point", "coordinates": [ -43.986098379098472, -19.834225663733612 ] } },
{ "type": "Feature", "properties": { "id": 285, "nome": "CENTRO DE SAUDE VERA CRUZ", "sigla": "CS" }, "geometry": { "type": "Point", "coordinates": [ -43.896405806520427, -19.911919195904265 ] } },
{ "type": "Feature", "properties": { "id": 210, "nome": "CENTRO DE SAUDE PEDREIRA PRADO LOPES", "sigla": "CSPPP" }, "geometry": { "type": "Point", "coordinates": [ -43.95047897207273, -19.901825655776602 ] } },
{ "type": "Feature", "properties": { "id": 341, "nome": "CENTRO DE SAUDE SAGRADA FAMILIA - MARCO ANTONIO DE MENEZES", "sigla": "CS" }, "geometry": { "type": "Point", "coordinates": [ -43.915544542881328, -19.9056037210262 ] } },
{ "type": "Feature", "properties": { "id": 174, "nome": "CENTRO DE SAUDE AMILCAR VIANA MARTINS", "sigla": "CS" }, "geometry": { "type": "Point", "coordinates": [ -43.984322582374297, -19.957651029667339 ] } },
{ "type": "Feature", "properties": { "id": 257, "nome": "CENTRO DE SAUDE NAZARE", "sigla": "CS" }, "geometry": { "type": "Point", "coordinates": [ -43.893631975679092, -19.851992139275605 ] } },
{ "type": "Feature", "properties": { "id": 203, "nome": "CENTRO DE SAUDE CONJUNTO SANTA MARIA", "sigla": "CSPPP" }, "geometry": { "type": "Point", "coordinates": [ -43.954294882814729, -19.952090122694898 ] } },
{ "type": "Feature", "properties": { "id": 216, "nome": "CENTRO DE SAUDE ALTO VERA CRUZ", "sigla": "CS" }, "geometry": { "type": "Point", "coordinates": [ -43.889390555507717, -19.910489395022875 ] } },
{ "type": "Feature", "properties": { "id": 154, "nome": "CENTRO DE SAUDE HORTO", "sigla": "CSPPP" }, "geometry": { "type": "Point", "coordinates": [ -43.920088622088414, -19.912806756872605 ] } },
{ "type": "Feature", "properties": { "id": 345, "nome": "CENTRO DE SAUDE JARDIM MONTANHES", "sigla": "CS" }, "geometry": { "type": "Point", "coordinates": [ -43.991514072617406, -19.911252555995059 ] } },
{ "type": "Feature", "properties": { "id": 158, "nome": "CENTRO DE SAUDE TAQUARIL", "sigla": "CS" }, "geometry": { "type": "Point", "coordinates": [ -43.887876924583757, -19.918300217273039 ] } },
{ "type": "Feature", "properties": { "id": 207, "nome": "CENTRO DE SAUDE LISANDRA ANGELICA DAVID JUSTINO - TUNEL DE IBIRITE", "sigla": "CSPPP" }, "geometry": { "type": "Point", "coordinates": [ -44.04651549298206, -19.988003351899305 ] } },
{ "type": "Feature", "properties": { "id": 259, "nome": "CENTRO DE SAUDE SAO TOMAZ", "sigla": "CS" }, "geometry": { "type": "Point", "coordinates": [ -43.953389118322974, -19.845048316915513 ] } },
{ "type": "Feature", "properties": { "id": 515, "nome": "CENTRO DE SAUDE JARDIM FILADELFIA", "sigla": "CS" }, "geometry": { "type": "Point", "coordinates": [ -44.009193633156954, -19.909647062299452 ] } },
{ "type": "Feature", "properties": { "id": 179, "nome": "CENTRO DE SAUDE SALGADO FILHO", "sigla": "CS" }, "geometry": { "type": "Point", "coordinates": [ -43.984988331985534, -19.94402294342094 ] } },
{ "type": "Feature", "properties": { "id": 250, "nome": "CENTRO DE SAUDE PADRE JOAQUIM MAIA", "sigla": "CS" }, "geometry": { "type": "Point", "coordinates": [ -43.95460112923567, -19.855689601819847 ] } },
{ "type": "Feature", "properties": { "id": 374, "nome": "CENTRO DE SAUDE VILAS REUNIDAS - LEOPOLDO CRISOSTOMO DE CASTRO", "sigla": "CS" }, "geometry": { "type": "Point", "coordinates": [ -43.921019587500673, -19.884079080593075 ] } },
{ "type": "Feature", "properties": { "id": 1441, "nome": "CENTRO DE SAUDE PARQUE CENTENARIO", "sigla": "CSPPP" }, "geometry": { "type": "Point", "coordinates": [ -43.891752414339251, -19.904264589857249 ] } },
{ "type": "Feature", "properties": { "id": 214, "nome": "CENTRO DE SAUDE FLORAMAR", "sigla": "CSPPP" }, "geometry": { "type": "Point", "coordinates": [ -43.933781764521385, -19.839586784219208 ] } },
{ "type": "Feature", "properties": { "id": 457, "nome": "CENTRO DE SAUDE CACHOEIRINHA", "sigla": "CS" }, "geometry": { "type": "Point", "coordinates": [ -43.945005723793251, -19.893477274920961 ] } },
{ "type": "Feature", "properties": { "id": 943, "nome": "CENTRO DE SAUDE PINDORAMA ELZA MARTINS", "sigla": "CS" }, "geometry": { "type": "Point", "coordinates": [ -44.020847194116101, -19.90839445326279 ] } },
{ "type": "Feature", "properties": { "id": 261, "nome": "CENTRO DE SAUDE SANTA MARIA", "sigla": "CSPPP" }, "geometry": { "type": "Point", "coordinates": [ -44.016996047061085, -19.933337337826138 ] } },
{ "type": "Feature", "properties": { "id": 195, "nome": "CENTRO DE SAUDE SANTO ANTONIO", "sigla": "CS" }, "geometry": { "type": "Point", "coordinates": [ -43.958883905266262, -19.817747655884482 ] } },
{ "type": "Feature", "properties": { "id": 422, "nome": "CENTRO DE SAUDE SANTA INES", "sigla": "CS" }, "geometry": { "type": "Point", "coordinates": [ -43.906276569844287, -19.887762367984759 ] } },
{ "type": "Feature", "properties": { "id": 180, "nome": "CENTRO DE SAUDE VILA PINHO", "sigla": "CSPPP" }, "geometry": { "type": "Point", "coordinates": [ -44.026229074843648, -20.000795056449153 ] } },
{ "type": "Feature", "properties": { "id": 322, "nome": "CENTRO DE SAUDE MG-20", "sigla": "CSPPP" }, "geometry": { "type": "Point", "coordinates": [ -43.884317058431641, -19.816355614078532 ] } },
{ "type": "Feature", "properties": { "id": 193, "nome": "CENTRO DE SAUDE PAULO VI - MARIVANDA BALEEIRO", "sigla": "CSPPP" }, "geometry": { "type": "Point", "coordinates": [ -43.888898542930725, -19.841940587329589 ] } },
{ "type": "Feature", "properties": { "id": 297, "nome": "CENTRO DE SAUDE JOAO VITAL", "sigla": "CSPPP" }, "geometry": { "type": "Point", "coordinates": [ -43.879156816633305, -19.843925186589903 ] } },
{ "type": "Feature", "properties": { "id": 213, "nome": "CENTRO DE SAUDE TUPI", "sigla": "CSPPP" }, "geometry": { "type": "Point", "coordinates": [ -43.922682622868429, -19.835859320410407 ] } },
{ "type": "Feature", "properties": { "id": 501, "nome": "CENTRO DE SAUDE BONSUCESSO", "sigla": "CS" }, "geometry": { "type": "Point", "coordinates": [ -43.988872637938563, -19.98714165408666 ] } },
{ "type": "Feature", "properties": { "id": 255, "nome": "CENTRO DE SAUDE DOM JOAQUIM", "sigla": "CS" }, "geometry": { "type": "Point", "coordinates": [ -43.916124654217334, -19.875427710772477 ] } },
{ "type": "Feature", "properties": { "id": 197, "nome": "CENTRO DE SAUDE CAPITAO EDUARDO", "sigla": "CS" }, "geometry": { "type": "Point", "coordinates": [ -43.867754760423225, -19.830661628273159 ] } },
{ "type": "Feature", "properties": { "id": 387, "nome": "CENTRO DE SAUDE SAO GABRIEL - FABIO CORREA LIMA", "sigla": "CSPPP" }, "geometry": { "type": "Point", "coordinates": [ -43.914141507264311, -19.856867237631192 ] } },
{ "type": "Feature", "properties": { "id": 504, "nome": "CENTRO DE SAUDE SANTA LUCIA", "sigla": "CS" }, "geometry": { "type": "Point", "coordinates": [ -43.946578209467532, -19.950582282624865 ] } },
{ "type": "Feature", "properties": { "id": 338, "nome": "CENTRO DE SAUDE SANTA CECILIA", "sigla": "CS" }, "geometry": { "type": "Point", "coordinates": [ -44.032712368480752, -19.999608940671632 ] } },
{ "type": "Feature", "properties": { "id": 399, "nome": "CENTRO DE SAUDE ITAMARATI", "sigla": "CSPPP" }, "geometry": { "type": "Point", "coordinates": [ -43.995404287783494, -19.871310738405146 ] } },
{ "type": "Feature", "properties": { "id": 342, "nome": "CENTRO DE SAUDE CONFISCO", "sigla": "CSPPP" }, "geometry": { "type": "Point", "coordinates": [ -44.002629535997698, -19.863841983104628 ] } },
{ "type": "Feature", "properties": { "id": 452, "nome": "CENTRO DE SAUDE AARAO REIS", "sigla": "CSPPP" }, "geometry": { "type": "Point", "coordinates": [ -43.92077499868968, -19.845964690554329 ] } },
{ "type": "Feature", "properties": { "id": 295, "nome": "CENTRO DE SAUDE OURO PRETO", "sigla": "CS" }, "geometry": { "type": "Point", "coordinates": [ -43.987559858993563, -19.885041919546762 ] } },
{ "type": "Feature", "properties": { "id": 461, "nome": "CENTRO DE SAUDE PADRE TIAGO", "sigla": "CS" }, "geometry": { "type": "Point", "coordinates": [ -43.994004816758682, -19.900625400131396 ] } },
{ "type": "Feature", "properties": { "id": 417, "nome": "CENTRO DE SAUDE SAO MIGUEL ARCANJO", "sigla": "CS" }, "geometry": { "type": "Point", "coordinates": [ -43.902422147156479, -19.934672268480458 ] } },
{ "type": "Feature", "properties": { "id": 396, "nome": "CENTRO DE SAUDE TREVO", "sigla": "CSPPP" }, "geometry": { "type": "Point", "coordinates": [ -44.007002961741058, -19.832859908068013 ] } },
{ "type": "Feature", "properties": { "id": 348, "nome": "CENTRO DE SAUDE JARDIM GUANABARA", "sigla": "CS" }, "geometry": { "type": "Point", "coordinates": [ -43.932827112058312, -19.828501390672308 ] } },
{ "type": "Feature", "properties": { "id": 286, "nome": "CENTRO DE SAUDE POMPEIA", "sigla": "CS" }, "geometry": { "type": "Point", "coordinates": [ -43.904377678713203, -19.91251404854491 ] } },
{ "type": "Feature", "properties": { "id": 212, "nome": "CENTRO DE SAUDE SANTA RITA DE CASSIA", "sigla": "CS" }, "geometry": { "type": "Point", "coordinates": [ -43.93885922946923, -19.946498155406402 ] } },
{ "type": "Feature", "properties": { "id": 172, "nome": "CENTRO DE SAUDE DIAMANTE - TEIXEIRA DIAS", "sigla": "CSPPP" }, "geometry": { "type": "Point", "coordinates": [ -44.023117293552929, -19.989735423757196 ] } },
{ "type": "Feature", "properties": { "id": 522, "nome": "CENTRO DE SAUDE JARDIM FELICIDADE", "sigla": "CSPPP" }, "geometry": { "type": "Point", "coordinates": [ -43.927669852372595, -19.829826456024431 ] } },
{ "type": "Feature", "properties": { "id": 462, "nome": "CENTRO DE SAUDE JARDIM EUROPA", "sigla": "CS" }, "geometry": { "type": "Point", "coordinates": [ -43.967097643418057, -19.800439594664034 ] } },
{ "type": "Feature", "properties": { "id": 316, "nome": "CENTRO DE SAUDE SERRA VERDE", "sigla": "CSPPP" }, "geometry": { "type": "Point", "coordinates": [ -43.953641641736453, -19.795405480264538 ] } },
{ "type": "Feature", "properties": { "id": 237, "nome": "CENTRO DE SAUDE RIBEIRO DE ABREU", "sigla": "CS" }, "geometry": { "type": "Point", "coordinates": [ -43.90117273313826, -19.837851048392004 ] } },
{ "type": "Feature", "properties": { "id": 258, "nome": "CENTRO DE SAUDE VILA CEMIG", "sigla": "CS" }, "geometry": { "type": "Point", "coordinates": [ -43.992439064064534, -19.997928258363334 ] } },
{ "type": "Feature", "properties": { "id": 184, "nome": "CENTRO DE SAUDE SANTA ROSA", "sigla": "CS" }, "geometry": { "type": "Point", "coordinates": [ -43.943467468783837, -19.86654678794838 ] } },
{ "type": "Feature", "properties": { "id": 423, "nome": "CENTRO DE SAUDE SAO JOSE OPERARIO", "sigla": "CS" }, "geometry": { "type": "Point", "coordinates": [ -43.898352525824812, -19.887652068269581 ] } },
{ "type": "Feature", "properties": { "id": 441, "nome": "CENTRO DE SAUDE MANGUEIRAS", "sigla": "CS" }, "geometry": { "type": "Point", "coordinates": [ -44.030917991217997, -20.013883018456504 ] } },
{ "type": "Feature", "properties": { "id": 313, "nome": "CENTRO DE SAUDE SERRANO", "sigla": "CSPPP" }, "geometry": { "type": "Point", "coordinates": [ -44.010116737475244, -19.884635102537789 ] } },
{ "type": "Feature", "properties": { "id": 448, "nome": "CENTRO DE SAUDE PARAUNA - VENDA NOVA", "sigla": "CS" }, "geometry": { "type": "Point", "coordinates": [ -43.989109073608361, -19.802400378273497 ] } },
{ "type": "Feature", "properties": { "id": 222, "nome": "CENTRO DE SAUDE JARDIM ALVORADA", "sigla": "CSPPP" }, "geometry": { "type": "Point", "coordinates": [ -43.983574851134918, -19.893806885845109 ] } },
{ "type": "Feature", "properties": { "id": 337, "nome": "CENTRO DE SAUDE MIRAMAR - EDUARDO MAURO DE ARAUJO", "sigla": "CS" }, "geometry": { "type": "Point", "coordinates": [ -44.011634274433682, -19.997621075180625 ] } },
{ "type": "Feature", "properties": { "id": 235, "nome": "CENTRO DE SAUDE INDEPENDENCIA", "sigla": "CSPPP" }, "geometry": { "type": "Point", "coordinates": [ -44.031504628704702, -20.019790590074603 ] } },
{ "type": "Feature", "properties": { "id": 443, "nome": "CENTRO DE SAUDE NOVO AARAO REIS", "sigla": "CS" }, "geometry": { "type": "Point", "coordinates": [ -43.908776556841936, -19.841284256771207 ] } },
{ "type": "Feature", "properties": { "id": 208, "nome": "CENTRO DE SAUDE VALE DO JATOBA", "sigla": "CS" }, "geometry": { "type": "Point", "coordinates": [ -44.036212547092177, -20.010256883894268 ] } },
{ "type": "Feature", "properties": { "id": 430, "nome": "CENTRO DE SAUDE CONJUNTO RIBEIRO DE ABREU - EFIGENIA MURTA FIGUEIREDO", "sigla": "CS" }, "geometry": { "type": "Point", "coordinates": [ -43.898758917863077, -19.825715856945383 ] } },
{ "type": "Feature", "properties": { "id": 581, "nome": "CENTRO DE SAUDE SANTA MONICA II - ALAMEDA DOS IPES", "sigla": "CSPPP" }, "geometry": { "type": "Point", "coordinates": [ -43.967800043947811, -19.819445823248117 ] } },
{ "type": "Feature", "properties": { "id": 332, "nome": "CENTRO DE SAUDE SAO JOSE", "sigla": "CS" }, "geometry": { "type": "Point", "coordinates": [ -43.99889385237725, -19.900382986828109 ] } },
{ "type": "Feature", "properties": { "id": 386, "nome": "CENTRO DE SAUDE URUCUIA", "sigla": "CSPPP" }, "geometry": { "type": "Point", "coordinates": [ -44.008147779480012, -20.009602372643627 ] } },
{ "type": "Feature", "properties": { "id": 354, "nome": "CENTRO DE SAUDE WALDOMIRO LOBO", "sigla": "CS" }, "geometry": { "type": "Point", "coordinates": [ -44.005119845228357, -19.945662254709855 ] } },
{ "type": "Feature", "properties": { "id": 178, "nome": "CENTRO DE SAUDE NORALDINO DE LIMA", "sigla": "CS" }, "geometry": { "type": "Point", "coordinates": [ -43.972925864392295, -19.930450663270303 ] } },
{ "type": "Feature", "properties": { "id": 435, "nome": "CENTRO DE SAUDE SAO FRANCISCO", "sigla": "CS" }, "geometry": { "type": "Point", "coordinates": [ -43.953399653358709, -19.876824182327965 ] } },
{ "type": "Feature", "properties": { "id": 236, "nome": "CENTRO DE SAUDE CONJUNTO PAULO VI", "sigla": "CS" }, "geometry": { "type": "Point", "coordinates": [ -43.883092546720263, -19.832996023180524 ] } },
{ "type": "Feature", "properties": { "id": 404, "nome": "CENTRO DE SAUDE ANDRADAS", "sigla": "CS" }, "geometry": { "type": "Point", "coordinates": [ -43.963050390040934, -19.819910386385754 ] } },
{ "type": "Feature", "properties": { "id": 229, "nome": "CENTRO DE SAUDE PILAR - OLHOS DAGUA", "sigla": "CS" }, "geometry": { "type": "Point", "coordinates": [ -43.966915535797057, -19.999651214002139 ] } },
{ "type": "Feature", "properties": { "id": 182, "nome": "CENTRO DE SAUDE HAVAI", "sigla": "CSPPP" }, "geometry": { "type": "Point", "coordinates": [ -43.972685877423586, -19.966469499703145 ] } },
{ "type": "Feature", "properties": { "id": 329, "nome": "CENTRO DE SAUDE LINDEIA - MARIA MADALENA TEODORO", "sigla": "CS" }, "geometry": { "type": "Point", "coordinates": [ -44.046686285098417, -19.979170569553062 ] } },
{ "type": "Feature", "properties": { "id": 205, "nome": "CENTRO DE SAUDE VENTOSA", "sigla": "CSPPP" }, "geometry": { "type": "Point", "coordinates": [ -43.97168871322166, -19.950857243338223 ] } },
{ "type": "Feature", "properties": { "id": 942, "nome": "CENTRO DE SAUDE COQUEIROS", "sigla": "CSPPP" }, "geometry": { "type": "Point", "coordinates": [ -44.02226829956507, -19.897775844114726 ] } },
{ "type": "Feature", "properties": { "id": 248, "nome": "CENTRO DE SAUDE GLORIA", "sigla": "CS" }, "geometry": { "type": "Point", "coordinates": [ -44.016832938226983, -19.90159323498937 ] } },
{ "type": "Feature", "properties": { "id": 231, "nome": "CENTRO DE SAUDE OLAVO ALBINO CORREA", "sigla": "CS" }, "geometry": { "type": "Point", "coordinates": [ -43.905460841042796, -19.850724090452783 ] } },
{ "type": "Feature", "properties": { "id": 406, "nome": "CENTRO DE SAUDE GOIANIA", "sigla": "CS" }, "geometry": { "type": "Point", "coordinates": [ -43.897761618812098, -19.863457611657328 ] } },
{ "type": "Feature", "properties": { "id": 451, "nome": "CENTRO DE SAUDE JARDIM VITÓRIA - MARCELO PONTEL GOMES", "sigla": "CS" }, "geometry": { "type": "Point", "coordinates": [ -43.882308275563759, -19.859701984522676 ] } },
{ "type": "Feature", "properties": { "id": 369, "nome": "CENTRO DE SAUDE PADRE TARCISIO", "sigla": "CS" }, "geometry": { "type": "Point", "coordinates": [ -43.91582067635445, -19.934042261474325 ] } }
]
}
